stk.v.8.0

BEGIN Satellite

Name		Thor_Agena

BEGIN VehiclePath
	CentralBody				Earth

    BEGIN Interval

         StartTime            25 Nov 2007 12:00:00.000000000
         StopTime             27 Nov 2007 12:00:00.000000000

    END Interval

	StoreEphemeris				Yes
	SmoothInterp				No

    BEGIN TLESelection

         FileSel              False
         SelType              3
         MaxTLE               10
         ApplyToAll              False
         SwitchMethod               0
        OnlineStart               1 Jul 2006 12:00:00.000000000
        OnlineStop                2 Jul 2006 12:00:00.000000000
        OnlineMaxDays             1825

    END TLESelection

    BEGIN SGP4

    SSCNumber           00733
    StartTime           25 Nov 2007 12:00:00.000000000
    StopTime            27 Nov 2007 12:00:00.000000000
    EpochTime           7329.556308680 
    MeanMotionDot       0.000000380
    MotionDotDot        0.000000e+000
    IEXP                0
    BStar               3.262200e-001
    IBEXP               -4
    Inclination         99.10730 
    RightAscenOfNode    312.01550
    Eccentricity        0.003353100000
    ArgOfPerigee        244.53040
    MeanAnomaly         115.24160
    MeanMotion          14.312004640
    TimeStep            60.000000
    Classification      U
    IntlDesignator        64002A
    SwitchMethod        0
    TLE
1 00733U 64002A   07329.55630868  .00000038  00000-0  32622-4 0  3407
2 00733  99.1073 312.0155 0033531 244.5304 115.2416 14.31200464282724


    END SGP4

BEGIN PassDefn

    Break               Ascending
    CoordSystem         Inertial
    BreakType           Latitude
    BreakAngle          0.000000000000e+000
    PartialPassMethod   ByTime
    DisplayFlag         Both
    FirstPass           1
    FirstPath           1
    RepeatCycle         1
    MaintainPassNum     No
    RangeFirstPass      1
    RangeLastPass       2147483647
    DisplayScheme       AllEphemeris
    ScenarioEpoch       25 Nov 2007 13:21:05.070000000
    Periods
        Rev 1 0 1 0 0 0 0 0 0 0 1
        -4.865070000000298e+003  4.673203304409981e-001 -4.525014733530581e+003 -1.507626985624433e+003
        Rev 2 1 1 0 0 0 0 0 0 0 1
         4.673203304409981e-001  6.040766390152276e+003  1.515284018740058e+003  4.532651207707822e+003
        Rev 3 1 1 0 0 0 0 0 0 0 1
         6.040766390152276e+003  1.208106547863782e+004  7.555582703620195e+003  1.057292936930060e+004
        Rev 4 1 1 0 0 0 0 0 0 0 1
         1.208106547863782e+004  1.812136460161954e+004  1.359588131793588e+004  1.661320749530941e+004
        Rev 5 1 1 0 0 0 0 0 0 0 1
         1.812136460161954e+004  2.416166373084486e+004  1.963617986559123e+004  2.265348558989912e+004
        Rev 6 1 1 0 0 0 0 0 0 0 1
         2.416166373084486e+004  3.020196289402247e+004  2.567647834248841e+004  2.869376365014911e+004
        Rev 7 1 1 0 0 0 0 0 0 0 1
         3.020196289402247e+004  3.624226206340641e+004  3.171677675241977e+004  3.473404167619348e+004
        Rev 8 1 1 0 0 0 0 0 0 0 1
         3.624226206340641e+004  4.228256125472486e+004  3.775707509133220e+004  4.077431967120618e+004
        Rev 9 1 1 0 0 0 0 0 0 0 1
         4.228256125472486e+004  4.832286047513038e+004  4.379737336208671e+004  4.681459763126820e+004
        Rev 10 1 1 0 0 0 0 0 0 0 1
         4.832286047513038e+004  5.436315970474482e+004  4.983767156350613e+004  5.285487556048483e+004
        Rev 11 1 1 0 0 0 0 0 0 0 1
         5.436315970474482e+004  6.040345895486325e+004  5.587796969551593e+004  5.889515345507115e+004
        Rev 12 1 1 0 0 0 0 0 0 0 1
         6.040345895486325e+004  6.644375823413581e+004  6.191826775898784e+004  6.493543131807447e+004
        Rev 13 1 1 0 0 0 0 0 0 0 1
         6.644375823413581e+004  7.248405752168596e+004  6.795856575076282e+004  7.097570914961398e+004
        Rev 14 1 1 0 0 0 0 0 0 0 1
         7.248405752168596e+004  7.852435682731867e+004  7.399886367373914e+004  7.701598694690317e+004
        Rev 15 1 1 0 0 0 0 0 0 0 1
         7.852435682731867e+004  8.456465616312623e+004  8.003916152780503e+004  8.305626471298933e+004
        Rev 16 1 1 0 0 0 0 0 0 0 1
         8.456465616312623e+004  9.060495550830662e+004  8.607945931079239e+004  8.909654244799167e+004
        Rev 17 1 1 0 0 0 0 0 0 0 1
         9.060495550830662e+004  9.664525487013906e+004  9.211975702361018e+004  9.513682014911622e+004
        Rev 18 1 1 0 0 0 0 0 0 0 1
         9.664525487013906e+004  1.026855542611554e+005  9.816005466614664e+004  1.011770978204086e+005
        Rev 19 1 1 0 0 0 0 0 0 0 1
         1.026855542611554e+005  1.087258536606729e+005  1.042003522382304e+005  1.072173754580095e+005
        Rev 20 1 1 0 0 0 0 0 0 0 1
         1.087258536606729e+005  1.147661530793980e+005  1.102406497397646e+005  1.132576530660838e+005
        Rev 21 1 1 0 0 0 0 0 0 0 1
         1.147661530793980e+005  1.208064525232986e+005  1.162809471696541e+005  1.192979306417182e+005
        Rev 22 1 1 0 0 0 0 0 0 0 1
         1.208064525232986e+005  1.268467519768551e+005  1.223212445297167e+005  1.253382081860229e+005
        Rev 23 1 1 0 0 0 0 0 0 0 1
         1.268467519768551e+005  1.328870514568389e+005  1.283615418198481e+005  1.313784856981859e+005
        Rev 24 1 1 0 0 0 0 0 0 0 1
         1.328870514568389e+005  1.389273509456515e+005  1.344018390369713e+005  1.374187631812692e+005
        Rev 25 1 1 0 0 0 0 0 0 0 1
         1.389273509456515e+005  1.449676504529342e+005  1.404421361848936e+005  1.434590406323969e+005
        Rev 26 1 1 0 0 0 0 0 0 0 1
         1.449676504529342e+005  1.510079499846175e+005  1.464824332595319e+005  1.494993180527464e+005
        Rev 27 1 1 0 0 0 0 0 0 0 1
         1.510079499846175e+005  1.570482495252937e+005  1.525227302637771e+005  1.555395954414010e+005
        Rev 28 1 1 0 0 0 0 0 0 0 1
         1.570482495252937e+005  1.630885490830168e+005  1.585630271964669e+005  1.615798728004620e+005
        Rev 29 1 0 0 0 1 0 0 0 0 1
         1.630885490830168e+005  1.679349299999997e+005  1.646033240574896e+005  1.676201501301006e+005
    END Periods
END PassDefn

END VehiclePath

BEGIN Ephemeris

NumberOfEphemerisPoints 2881

ScenarioEpoch           25 Nov 2007 13:21:05.070000000

InterpolationMethod     Lagrange

InterpolationSamplesM1      5

CentralBody             Earth

CoordinateSystem        Fixed 

BlockingFactor          20

EphemerisTimePosVel

-4.86507000000030e+003 1.92445239422757e+006 1.90278170411361e+006 6.65383633878265e+006 -2.10973614572204e+003 -6.75835491751431e+003 2.53541859076795e+003
-4.80507000000030e+003 1.79247728618482e+006 1.49446089633543e+006 6.79300932963247e+006 -2.28816162692162e+003 -6.84773422972781e+003 2.10216749403658e+003
-4.74507000000030e+003 1.65003557461449e+006 1.08160977639277e+006 6.90593544526108e+006 -2.45847049477299e+003 -6.90932615090973e+003 1.66080384298965e+003
-4.68507000000030e+003 1.49764112283523e+006 6.65900861557548e+005 6.99217814217822e+006 -2.61977234910669e+003 -6.94297402208745e+003 1.21300630183482e+003
-4.62507000000030e+003 1.33586028025128e+006 2.49012770113237e+005 7.05140232818830e+006 -2.77120879019285e+003 -6.94863120233251e+003 7.60476756158089e+002
-4.56507000000030e+003 1.16530984368963e+006 -1.67376373890582e+005 7.08337558608558e+006 -2.91195734182233e+003 -6.92636077065404e+003 3.04934641003220e+002
-4.50507000000030e+003 9.86654785939499e+005 -5.81595508896725e+005 7.08796905606072e+006 -3.04123528341298e+003 -6.87633492545544e+003 -1.51888750637369e+002
-4.44507000000030e+003 8.00605757177286e+005 -9.91987159102359e+005 7.06515797550624e+006 -3.15830338479687e+003 -6.79883408871114e+003 -6.08255983753951e+002
-4.38507000000030e+003 6.07916365379851e+005 -1.39691389504619e+006 7.01502187460588e+006 -3.26246953614165e+003 -6.69424571849720e+003 -1.06242922759713e+003
-4.32507000000030e+003 4.09380242329669e+005 -1.79476471396342e+006 6.93774442574841e+006 -3.35309226390088e+003 -6.56306282993883e+003 -1.51267603845347e+003
-4.26507000000030e+003 2.05827902414863e+005 -2.18396132226690e+006 6.83361294447238e+006 -3.42958412183762e+003 -6.40588222118724e+003 -1.95727518441525e+003
-4.20507000000030e+003 -1.87659785762569e+003 -2.56296430223151e+006 6.70301753937599e+006 -3.49141494409811e+003 -6.22340239787072e+003 -2.39452251610394e+003
-4.14507000000030e+003 -2.12839190877309e+005 -2.93027914450367e+006 6.54644990826643e+006 -3.53811494511776e+003 -6.01642118673543e+003 -2.82273688492750e+003
-4.08507000000030e+003 -4.26139509744112e+005 -3.28446212745580e+006 6.36450177782433e+006 -3.56927764891444e+003 -5.78583302704389e+003 -3.24026610729226e+003
-4.02507000000030e+003 -6.40834770050045e+005 -3.62412602369548e+006 6.15786298426501e+006 -3.58456262816949e+003 -5.53262592685680e+003 -3.64549296934548e+003
-3.96507000000030e+003 -8.55963809573110e+005 -3.94794561326436e+006 5.92731919292634e+006 -3.58369803151853e+003 -5.25787807068839e+003 -4.03684126241331e+003
-3.90507000000030e+003 -1.07055127249304e+006 -4.25466298227225e+006 5.67374925543424e+006 -3.56648287577635e+003 -4.96275406527291e+003 -4.41278183446197e+003
-3.84507000000030e+003 -1.28361192331230e+006 -4.54309258496053e+006 5.39812220411206e+006 -3.53278907850210e+003 -4.64850081135533e+003 -4.77183863780780e+003
-3.78507000000030e+003 -1.49415507417327e+006 -4.81212604653178e+006 5.10149388462143e+006 -3.48256320546277e+003 -4.31644299153694e+003 -5.11259474810799e+003
-3.72507000000030e+003 -1.70118910773286e+006 -5.06073668357406e+006 4.78500322945139e+006 -3.41582790725300e+003 -3.96797816724768e+003 -5.43369832455935e+003
-3.66507000000030e+003 -1.90372607622454e+006 -5.28798371860422e+006 4.44986817679875e+006 -3.33268301963947e+003 -3.60457148183016e+003 -5.73386847640389e+003
-3.60507000000030e+003 -2.10078635584074e+006 -5.49301616520239e+006 4.09738124158787e+006 -3.23330630316460e+003 -3.22774997142118e+003 -6.01190099646499e+003
